ONEWEB-0720             
1 55835U 23029AR  25218.93873251  .00000001  00000+0 -29889-4 0  9999
2 55835  87.9239   7.4612 0002024  83.4438 276.6925 13.19723599117391
ONEWEB-0537             
1 56046U 23043A   25218.71915986 -.00000230  00000+0 -63561-3 0  9997
2 56046  87.9047 291.4445 0001832 101.6227 258.5110 13.16593439117588
ONEWEB-0538             
1 56047U 23043B   25218.71284453  .00000010  00000+0 -67982-5 0  9994
2 56047  87.9039 291.4609 0001793  93.4213 266.7123 13.16593616117594
ONEWEB-0546             
1 56048U 23043C   25218.92816531 -.00000141  00000+0 -40284-3 0  9996
2 56048  87.9050 291.3965 0001673 117.6263 242.5038 13.16593347117614
ONEWEB-0547             
1 56049U 23043D   25218.80658775  .00000066  00000+0  12919-3 0  9996
2 56049  87.9264 306.6991 0001940  92.9709 267.1647 13.21824583116699
ONEWEB-0548             
1 56050U 23043E   25218.72549697  .00000036  00000+0  60928-4 0  9992
2 56050  87.9034 291.4661 0002492 101.8108 258.3303 13.16591104117581
ONEWEB-0549             
1 56051U 23043F   25218.79790856  .00000066  00000+0  12763-3 0  9991
2 56051  87.9268 306.7151 0001887  91.0473 269.0877 13.21823892116691
ONEWEB-0550             
1 56052U 23043G   25218.93669885  .00000045  00000+0  76652-4 0  9990
2 56052  87.9270 306.6813 0002109 103.0414 257.0956 13.21826458116715
ONEWEB-0551             
1 56053U 23043H   25218.81029912  .00000091  00000+0  20652-3 0  9998
2 56053  87.9081 321.9377 0001963  92.2323 267.9032 13.15547113115069
ONEWEB-0552             
1 56054U 23043J   25218.77899184 -.00000099  00000+0 -27125-3 0  9992
2 56054  87.9271 306.7216 0002152  92.2199 267.9181 13.21826739116692
ONEWEB-0553             
1 56055U 23043K   25218.70649554 -.00000047  00000+0 -15780-3 0  9997
2 56055  87.9041 291.4605 0001944 109.1902 250.9440 13.16595626117590
ONEWEB-0554             
1 56056U 23043L   25218.92183191 -.00000003  00000+0 -41148-4 0  9992
2 56056  87.9033 291.4440 0002239 101.5720 258.5663 13.16595978117604
ONEWEB-0555             
1 56057U 23043M   25218.73184696  .00000164  00000+0  39607-3 0  9995
2 56057  87.9041 291.4501 0001843 114.9798 245.1525 13.16593701117583
ONEWEB-0557             
1 56058U 23043N   25218.89808396  .00000056  00000+0  11274-3 0  9993
2 56058  87.9039 291.4375 0002910 121.1119 239.0298 13.16594498117609
ONEWEB-0558             
1 56059U 23043P   25218.77269871  .00000036  00000+0  55502-4 0  9991
2 56059  87.9268 306.7188 0001860  85.3993 274.7354 13.21824966116701
ONEWEB-0559             
1 56060U 23043Q   25218.76164140  .00000037  00000+0  58180-4 0  9991
2 56060  87.9270 306.7130 0002208  89.6712 270.4675 13.21827066116710
ONEWEB-0566             
1 56061U 23043R   25218.75533324  .00000032  00000+0  46523-4 0  9998
2 56061  87.9267 306.7121 0002028  89.7915 270.3451 13.21827439116695
