[{"OBJECT_NAME":"ONEWEB-0720","OBJECT_ID":"2023-029AR","EPOCH":"2025-08-06T22:31:46.488864","MEAN_MOTION":13.19723599,"ECCENTRICITY":0.00020245,"INCLINATION":87.9239,"RA_OF_ASC_NODE":7.4612,"ARG_OF_PERICENTER":83.4438,"MEAN_ANOMALY":276.6925,"EPHEMERIS_TYPE":0,"CLASSIFICATION_TYPE":"U","NORAD_CAT_ID":55835,"ELEMENT_SET_NO":999,"REV_AT_EPOCH":11739,"BSTAR":-2.9888616e-5,"MEAN_MOTION_DOT":1.0e-8,"MEAN_MOTION_DDOT":0},{"OBJECT_NAME":"ONEWEB-0537","OBJECT_ID":"2023-043A","EPOCH":"2025-08-06T17:15:35.411904","MEAN_MOTION":13.16593439,"ECCENTRICITY":0.00018328,"INCLINATION":87.9047,"RA_OF_ASC_NODE":291.4445,"ARG_OF_PERICENTER":101.6227,"MEAN_ANOMALY":258.511,"EPHEMERIS_TYPE":0,"CLASSIFICATION_TYPE":"U","NORAD_CAT_ID":56046,"ELEMENT_SET_NO":999,"REV_AT_EPOCH":11758,"BSTAR":-0.00063560618,"MEAN_MOTION_DOT":-2.3e-6,"MEAN_MOTION_DDOT":0},{"OBJECT_NAME":"ONEWEB-0538","OBJECT_ID":"2023-043B","EPOCH":"2025-08-06T17:06:29.767392","MEAN_MOTION":13.16593616,"ECCENTRICITY":0.0001793,"INCLINATION":87.9039,"RA_OF_ASC_NODE":291.4609,"ARG_OF_PERICENTER":93.4213,"MEAN_ANOMALY":266.7123,"EPHEMERIS_TYPE":0,"CLASSIFICATION_TYPE":"U","NORAD_CAT_ID":56047,"ELEMENT_SET_NO":999,"REV_AT_EPOCH":11759,"BSTAR":-6.798164e-6,"MEAN_MOTION_DOT":1.0e-7,"MEAN_MOTION_DDOT":0},{"OBJECT_NAME":"ONEWEB-0546","OBJECT_ID":"2023-043C","EPOCH":"2025-08-06T22:16:33.482784","MEAN_MOTION":13.16593347,"ECCENTRICITY":0.00016738,"INCLINATION":87.905,"RA_OF_ASC_NODE":291.3965,"ARG_OF_PERICENTER":117.6263,"MEAN_ANOMALY":242.5038,"EPHEMERIS_TYPE":0,"CLASSIFICATION_TYPE":"U","NORAD_CAT_ID":56048,"ELEMENT_SET_NO":999,"REV_AT_EPOCH":11761,"BSTAR":-0.00040283929,"MEAN_MOTION_DOT":-1.41e-6,"MEAN_MOTION_DDOT":0},{"OBJECT_NAME":"ONEWEB-0547","OBJECT_ID":"2023-043D","EPOCH":"2025-08-06T19:21:29.181600","MEAN_MOTION":13.21824583,"ECCENTRICITY":0.00019405,"INCLINATION":87.9264,"RA_OF_ASC_NODE":306.6991,"ARG_OF_PERICENTER":92.9709,"MEAN_ANOMALY":267.1647,"EPHEMERIS_TYPE":0,"CLASSIFICATION_TYPE":"U","NORAD_CAT_ID":56049,"ELEMENT_SET_NO":999,"REV_AT_EPOCH":11669,"BSTAR":0.00012919011,"MEAN_MOTION_DOT":6.6e-7,"MEAN_MOTION_DDOT":0},{"OBJECT_NAME":"ONEWEB-0548","OBJECT_ID":"2023-043E","EPOCH":"2025-08-06T17:24:42.938208","MEAN_MOTION":13.16591104,"ECCENTRICITY":0.00024929,"INCLINATION":87.9034,"RA_OF_ASC_NODE":291.4661,"ARG_OF_PERICENTER":101.8108,"MEAN_ANOMALY":258.3303,"EPHEMERIS_TYPE":0,"CLASSIFICATION_TYPE":"U","NORAD_CAT_ID":56050,"ELEMENT_SET_NO":999,"REV_AT_EPOCH":11758,"BSTAR":6.0928416e-5,"MEAN_MOTION_DOT":3.6e-7,"MEAN_MOTION_DDOT":0},{"OBJECT_NAME":"ONEWEB-0549","OBJECT_ID":"2023-043F","EPOCH":"2025-08-06T19:08:59.299584","MEAN_MOTION":13.21823892,"ECCENTRICITY":0.00018875,"INCLINATION":87.9268,"RA_OF_ASC_NODE":306.7151,"ARG_OF_PERICENTER":91.0473,"MEAN_ANOMALY":269.0877,"EPHEMERIS_TYPE":0,"CLASSIFICATION_TYPE":"U","NORAD_CAT_ID":56051,"ELEMENT_SET_NO":999,"REV_AT_EPOCH":11669,"BSTAR":0.00012763149,"MEAN_MOTION_DOT":6.6e-7,"MEAN_MOTION_DDOT":0},{"OBJECT_NAME":"ONEWEB-0550","OBJECT_ID":"2023-043G","EPOCH":"2025-08-06T22:28:50.780640","MEAN_MOTION":13.21826458,"ECCENTRICITY":0.00021093,"INCLINATION":87.927,"RA_OF_ASC_NODE":306.6813,"ARG_OF_PERICENTER":103.0414,"MEAN_ANOMALY":257.0956,"EPHEMERIS_TYPE":0,"CLASSIFICATION_TYPE":"U","NORAD_CAT_ID":56052,"ELEMENT_SET_NO":999,"REV_AT_EPOCH":11671,"BSTAR":7.6651796e-5,"MEAN_MOTION_DOT":4.5e-7,"MEAN_MOTION_DDOT":0},{"OBJECT_NAME":"ONEWEB-0551","OBJECT_ID":"2023-043H","EPOCH":"2025-08-06T19:26:49.843968","MEAN_MOTION":13.15547113,"ECCENTRICITY":0.00019638,"INCLINATION":87.9081,"RA_OF_ASC_NODE":321.9377,"ARG_OF_PERICENTER":92.2323,"MEAN_ANOMALY":267.9032,"EPHEMERIS_TYPE":0,"CLASSIFICATION_TYPE":"U","NORAD_CAT_ID":56053,"ELEMENT_SET_NO":999,"REV_AT_EPOCH":11506,"BSTAR":0.0002065206,"MEAN_MOTION_DOT":9.1e-7,"MEAN_MOTION_DDOT":0},{"OBJECT_NAME":"ONEWEB-0552","OBJECT_ID":"2023-043J","EPOCH":"2025-08-06T18:41:44.894976","MEAN_MOTION":13.21826739,"ECCENTRICITY":0.00021529,"INCLINATION":87.9271,"RA_OF_ASC_NODE":306.7216,"ARG_OF_PERICENTER":92.2199,"MEAN_ANOMALY":267.9181,"EPHEMERIS_TYPE":0,"CLASSIFICATION_TYPE":"U","NORAD_CAT_ID":56054,"ELEMENT_SET_NO":999,"REV_AT_EPOCH":11669,"BSTAR":-0.00027125465,"MEAN_MOTION_DOT":-9.9e-7,"MEAN_MOTION_DDOT":0},{"OBJECT_NAME":"ONEWEB-0553","OBJECT_ID":"2023-043K","EPOCH":"2025-08-06T16:57:21.214656","MEAN_MOTION":13.16595626,"ECCENTRICITY":0.00019441,"INCLINATION":87.9041,"RA_OF_ASC_NODE":291.4605,"ARG_OF_PERICENTER":109.1902,"MEAN_ANOMALY":250.944,"EPHEMERIS_TYPE":0,"CLASSIFICATION_TYPE":"U","NORAD_CAT_ID":56055,"ELEMENT_SET_NO":999,"REV_AT_EPOCH":11759,"BSTAR":-0.00015779853,"MEAN_MOTION_DOT":-4.7e-7,"MEAN_MOTION_DDOT":0},{"OBJECT_NAME":"ONEWEB-0554","OBJECT_ID":"2023-043L","EPOCH":"2025-08-06T22:07:26.277024","MEAN_MOTION":13.16595978,"ECCENTRICITY":0.00022391,"INCLINATION":87.9033,"RA_OF_ASC_NODE":291.444,"ARG_OF_PERICENTER":101.572,"MEAN_ANOMALY":258.5663,"EPHEMERIS_TYPE":0,"CLASSIFICATION_TYPE":"U","NORAD_CAT_ID":56056,"ELEMENT_SET_NO":999,"REV_AT_EPOCH":11760,"BSTAR":-4.1147695e-5,"MEAN_MOTION_DOT":-3.0e-8,"MEAN_MOTION_DDOT":0},{"OBJECT_NAME":"ONEWEB-0555","OBJECT_ID":"2023-043M","EPOCH":"2025-08-06T17:33:51.577344","MEAN_MOTION":13.16593701,"ECCENTRICITY":0.00018437,"INCLINATION":87.9041,"RA_OF_ASC_NODE":291.4501,"ARG_OF_PERICENTER":114.9798,"MEAN_ANOMALY":245.1525,"EPHEMERIS_TYPE":0,"CLASSIFICATION_TYPE":"U","NORAD_CAT_ID":56057,"ELEMENT_SET_NO":999,"REV_AT_EPOCH":11758,"BSTAR":0.0003960737,"MEAN_MOTION_DOT":1.64e-6,"MEAN_MOTION_DDOT":0},{"OBJECT_NAME":"ONEWEB-0557","OBJECT_ID":"2023-043N","EPOCH":"2025-08-06T21:33:14.454144","MEAN_MOTION":13.16594498,"ECCENTRICITY":0.00029108,"INCLINATION":87.9039,"RA_OF_ASC_NODE":291.4375,"ARG_OF_PERICENTER":121.1119,"MEAN_ANOMALY":239.0298,"EPHEMERIS_TYPE":0,"CLASSIFICATION_TYPE":"U","NORAD_CAT_ID":56058,"ELEMENT_SET_NO":999,"REV_AT_EPOCH":11760,"BSTAR":0.0001127372,"MEAN_MOTION_DOT":5.6e-7,"MEAN_MOTION_DDOT":0},{"OBJECT_NAME":"ONEWEB-0558","OBJECT_ID":"2023-043P","EPOCH":"2025-08-06T18:32:41.168544","MEAN_MOTION":13.21824966,"ECCENTRICITY":0.00018601,"INCLINATION":87.9268,"RA_OF_ASC_NODE":306.7188,"ARG_OF_PERICENTER":85.3993,"MEAN_ANOMALY":274.7354,"EPHEMERIS_TYPE":0,"CLASSIFICATION_TYPE":"U","NORAD_CAT_ID":56059,"ELEMENT_SET_NO":999,"REV_AT_EPOCH":11670,"BSTAR":5.550213e-5,"MEAN_MOTION_DOT":3.6e-7,"MEAN_MOTION_DDOT":0},{"OBJECT_NAME":"ONEWEB-0559","OBJECT_ID":"2023-043Q","EPOCH":"2025-08-06T18:16:45.816960","MEAN_MOTION":13.21827066,"ECCENTRICITY":0.00022083,"INCLINATION":87.927,"RA_OF_ASC_NODE":306.713,"ARG_OF_PERICENTER":89.6712,"MEAN_ANOMALY":270.4675,"EPHEMERIS_TYPE":0,"CLASSIFICATION_TYPE":"U","NORAD_CAT_ID":56060,"ELEMENT_SET_NO":999,"REV_AT_EPOCH":11671,"BSTAR":5.8180499e-5,"MEAN_MOTION_DOT":3.7e-7,"MEAN_MOTION_DDOT":0},{"OBJECT_NAME":"ONEWEB-0566","OBJECT_ID":"2023-043R","EPOCH":"2025-08-06T18:07:40.791936","MEAN_MOTION":13.21827439,"ECCENTRICITY":0.00020286,"INCLINATION":87.9267,"RA_OF_ASC_NODE":306.7121,"ARG_OF_PERICENTER":89.7915,"MEAN_ANOMALY":270.3451,"EPHEMERIS_TYPE":0,"CLASSIFICATION_TYPE":"U","NORAD_CAT_ID":56061,"ELEMENT_SET_NO":999,"REV_AT_EPOCH":11669,"BSTAR":4.652311e-5,"MEAN_MOTION_DOT":3.2e-7,"MEAN_MOTION_DDOT":0}]
